STARLINK-2269
1 18447C 21040V   21326.17455105 -.00009176  00000-0 -61462-3 0  3267
2 18447  53.0556  22.9454 0001421  64.9330  76.9895 15.06419411    19
